<?xml version="1.0" encoding="UTF-8"?>
<ndm xmlns:xsi="http://www.w3.org/2001/XMLSchema-instance" xsi:noNamespaceSchemaLocation="https://sanaregistry.org/r/ndmxml_unqualified/ndmxml-2.0.0-master-2.0.xsd">
<omm id="CCSDS_OMM_VERS" version="2.0">
<header><CREATION_DATE/><ORIGINATOR/></header><body><segment><metadata><OBJECT_NAME>KUIPER-00071</OBJECT_NAME><OBJECT_ID>2025-151C</OBJECT_ID><CENTER_NAME>EARTH</CENTER_NAME><REF_FRAME>TEME</REF_FRAME><TIME_SYSTEM>UTC</TIME_SYSTEM><MEAN_ELEMENT_THEORY>SGP4</MEAN_ELEMENT_THEORY></metadata><data><meanElements><EPOCH>2025-08-01T22:15:42.260544</EPOCH><MEAN_MOTION>15.35728487</MEAN_MOTION><ECCENTRICITY>.0005396</ECCENTRICITY><INCLINATION>51.8778</INCLINATION><RA_OF_ASC_NODE>207.2788</RA_OF_ASC_NODE><ARG_OF_PERICENTER>196.4159</ARG_OF_PERICENTER><MEAN_ANOMALY>163.6653</MEAN_ANOMALY></meanElements><tleParameters><EPHEMERIS_TYPE>0</EPHEMERIS_TYPE><CLASSIFICATION_TYPE>U</CLASSIFICATION_TYPE><NORAD_CAT_ID>64818</NORAD_CAT_ID><ELEMENT_SET_NO>999</ELEMENT_SET_NO><REV_AT_EPOCH>255</REV_AT_EPOCH><BSTAR>.64335E-3</BSTAR><MEAN_MOTION_DOT>.22391E-3</MEAN_MOTION_DOT><MEAN_MOTION_DDOT>0</MEAN_MOTION_DDOT></tleParameters></data></segment></body></omm>
<omm id="CCSDS_OMM_VERS" version="2.0">
<header><CREATION_DATE/><ORIGINATOR/></header><body><segment><metadata><OBJECT_NAME>KUIPER-00072</OBJECT_NAME><OBJECT_ID>2025-151D</OBJECT_ID><CENTER_NAME>EARTH</CENTER_NAME><REF_FRAME>TEME</REF_FRAME><TIME_SYSTEM>UTC</TIME_SYSTEM><MEAN_ELEMENT_THEORY>SGP4</MEAN_ELEMENT_THEORY></metadata><data><meanElements><EPOCH>2025-08-02T04:35:54.487104</EPOCH><MEAN_MOTION>15.35348786</MEAN_MOTION><ECCENTRICITY>.0004991</ECCENTRICITY><INCLINATION>51.8769</INCLINATION><RA_OF_ASC_NODE>206.0415</RA_OF_ASC_NODE><ARG_OF_PERICENTER>208.9690</ARG_OF_PERICENTER><MEAN_ANOMALY>151.1019</MEAN_ANOMALY></meanElements><tleParameters><EPHEMERIS_TYPE>0</EPHEMERIS_TYPE><CLASSIFICATION_TYPE>U</CLASSIFICATION_TYPE><NORAD_CAT_ID>64819</NORAD_CAT_ID><ELEMENT_SET_NO>999</ELEMENT_SET_NO><REV_AT_EPOCH>259</REV_AT_EPOCH><BSTAR>.7039E-3</BSTAR><MEAN_MOTION_DOT>.2424E-3</MEAN_MOTION_DOT><MEAN_MOTION_DDOT>0</MEAN_MOTION_DDOT></tleParameters></data></segment></body></omm>
<omm id="CCSDS_OMM_VERS" version="2.0">
<header><CREATION_DATE/><ORIGINATOR/></header><body><segment><metadata><OBJECT_NAME>KUIPER-00073</OBJECT_NAME><OBJECT_ID>2025-151E</OBJECT_ID><CENTER_NAME>EARTH</CENTER_NAME><REF_FRAME>TEME</REF_FRAME><TIME_SYSTEM>UTC</TIME_SYSTEM><MEAN_ELEMENT_THEORY>SGP4</MEAN_ELEMENT_THEORY></metadata><data><meanElements><EPOCH>2025-08-01T19:11:53.312640</EPOCH><MEAN_MOTION>15.35458284</MEAN_MOTION><ECCENTRICITY>.0005088</ECCENTRICITY><INCLINATION>51.8784</INCLINATION><RA_OF_ASC_NODE>207.9243</RA_OF_ASC_NODE><ARG_OF_PERICENTER>203.2411</ARG_OF_PERICENTER><MEAN_ANOMALY>156.8345</MEAN_ANOMALY></meanElements><tleParameters><EPHEMERIS_TYPE>0</EPHEMERIS_TYPE><CLASSIFICATION_TYPE>U</CLASSIFICATION_TYPE><NORAD_CAT_ID>64820</NORAD_CAT_ID><ELEMENT_SET_NO>999</ELEMENT_SET_NO><REV_AT_EPOCH>371</REV_AT_EPOCH><BSTAR>.72077E-3</BSTAR><MEAN_MOTION_DOT>.24921E-3</MEAN_MOTION_DOT><MEAN_MOTION_DDOT>0</MEAN_MOTION_DDOT></tleParameters></data></segment></body></omm>
<omm id="CCSDS_OMM_VERS" version="2.0">
<header><CREATION_DATE/><ORIGINATOR/></header><body><segment><metadata><OBJECT_NAME>KUIPER-00074</OBJECT_NAME><OBJECT_ID>2025-151F</OBJECT_ID><CENTER_NAME>EARTH</CENTER_NAME><REF_FRAME>TEME</REF_FRAME><TIME_SYSTEM>UTC</TIME_SYSTEM><MEAN_ELEMENT_THEORY>SGP4</MEAN_ELEMENT_THEORY></metadata><data><meanElements><EPOCH>2025-08-01T19:10:57.817920</EPOCH><MEAN_MOTION>15.35551387</MEAN_MOTION><ECCENTRICITY>.000512</ECCENTRICITY><INCLINATION>51.8769</INCLINATION><RA_OF_ASC_NODE>207.9123</RA_OF_ASC_NODE><ARG_OF_PERICENTER>205.8609</ARG_OF_PERICENTER><MEAN_ANOMALY>154.2122</MEAN_ANOMALY></meanElements><tleParameters><EPHEMERIS_TYPE>0</EPHEMERIS_TYPE><CLASSIFICATION_TYPE>U</CLASSIFICATION_TYPE><NORAD_CAT_ID>64821</NORAD_CAT_ID><ELEMENT_SET_NO>999</ELEMENT_SET_NO><REV_AT_EPOCH>253</REV_AT_EPOCH><BSTAR>.75153E-3</BSTAR><MEAN_MOTION_DOT>.26083E-3</MEAN_MOTION_DOT><MEAN_MOTION_DDOT>0</MEAN_MOTION_DDOT></tleParameters></data></segment></body></omm>
<omm id="CCSDS_OMM_VERS" version="2.0">
<header><CREATION_DATE/><ORIGINATOR/></header><body><segment><metadata><OBJECT_NAME>KUIPER-00075</OBJECT_NAME><OBJECT_ID>2025-151G</OBJECT_ID><CENTER_NAME>EARTH</CENTER_NAME><REF_FRAME>TEME</REF_FRAME><TIME_SYSTEM>UTC</TIME_SYSTEM><MEAN_ELEMENT_THEORY>SGP4</MEAN_ELEMENT_THEORY></metadata><data><meanElements><EPOCH>2025-08-02T04:32:04.108416</EPOCH><MEAN_MOTION>15.35596384</MEAN_MOTION><ECCENTRICITY>.0005015</ECCENTRICITY><INCLINATION>51.8784</INCLINATION><RA_OF_ASC_NODE>206.0321</RA_OF_ASC_NODE><ARG_OF_PERICENTER>197.8696</ARG_OF_PERICENTER><MEAN_ANOMALY>162.2114</MEAN_ANOMALY></meanElements><tleParameters><EPHEMERIS_TYPE>0</EPHEMERIS_TYPE><CLASSIFICATION_TYPE>U</CLASSIFICATION_TYPE><NORAD_CAT_ID>64822</NORAD_CAT_ID><ELEMENT_SET_NO>999</ELEMENT_SET_NO><REV_AT_EPOCH>259</REV_AT_EPOCH><BSTAR>.65785E-3</BSTAR><MEAN_MOTION_DOT>.22807E-3</MEAN_MOTION_DOT><MEAN_MOTION_DDOT>0</MEAN_MOTION_DDOT></tleParameters></data></segment></body></omm>
<omm id="CCSDS_OMM_VERS" version="2.0">
<header><CREATION_DATE/><ORIGINATOR/></header><body><segment><metadata><OBJECT_NAME>KUIPER-00076</OBJECT_NAME><OBJECT_ID>2025-151H</OBJECT_ID><CENTER_NAME>EARTH</CENTER_NAME><REF_FRAME>TEME</REF_FRAME><TIME_SYSTEM>UTC</TIME_SYSTEM><MEAN_ELEMENT_THEORY>SGP4</MEAN_ELEMENT_THEORY></metadata><data><meanElements><EPOCH>2025-08-01T19:12:25.853472</EPOCH><MEAN_MOTION>15.35416411</MEAN_MOTION><ECCENTRICITY>.0005114</ECCENTRICITY><INCLINATION>51.8770</INCLINATION><RA_OF_ASC_NODE>207.9195</RA_OF_ASC_NODE><ARG_OF_PERICENTER>205.1112</ARG_OF_PERICENTER><MEAN_ANOMALY>154.9626</MEAN_ANOMALY></meanElements><tleParameters><EPHEMERIS_TYPE>0</EPHEMERIS_TYPE><CLASSIFICATION_TYPE>U</CLASSIFICATION_TYPE><NORAD_CAT_ID>64823</NORAD_CAT_ID><ELEMENT_SET_NO>999</ELEMENT_SET_NO><REV_AT_EPOCH>253</REV_AT_EPOCH><BSTAR>.79076E-3</BSTAR><MEAN_MOTION_DOT>.2735E-3</MEAN_MOTION_DOT><MEAN_MOTION_DDOT>0</MEAN_MOTION_DDOT></tleParameters></data></segment></body></omm>
<omm id="CCSDS_OMM_VERS" version="2.0">
<header><CREATION_DATE/><ORIGINATOR/></header><body><segment><metadata><OBJECT_NAME>KUIPER-00077</OBJECT_NAME><OBJECT_ID>2025-151J</OBJECT_ID><CENTER_NAME>EARTH</CENTER_NAME><REF_FRAME>TEME</REF_FRAME><TIME_SYSTEM>UTC</TIME_SYSTEM><MEAN_ELEMENT_THEORY>SGP4</MEAN_ELEMENT_THEORY></metadata><data><meanElements><EPOCH>2025-08-02T04:37:35.366880</EPOCH><MEAN_MOTION>15.35265452</MEAN_MOTION><ECCENTRICITY>.0005716</ECCENTRICITY><INCLINATION>51.8784</INCLINATION><RA_OF_ASC_NODE>206.0560</RA_OF_ASC_NODE><ARG_OF_PERICENTER>212.2558</ARG_OF_PERICENTER><MEAN_ANOMALY>147.8079</MEAN_ANOMALY></meanElements><tleParameters><EPHEMERIS_TYPE>0</EPHEMERIS_TYPE><CLASSIFICATION_TYPE>U</CLASSIFICATION_TYPE><NORAD_CAT_ID>64824</NORAD_CAT_ID><ELEMENT_SET_NO>999</ELEMENT_SET_NO><REV_AT_EPOCH>258</REV_AT_EPOCH><BSTAR>.71114E-3</BSTAR><MEAN_MOTION_DOT>.24431E-3</MEAN_MOTION_DOT><MEAN_MOTION_DDOT>0</MEAN_MOTION_DDOT></tleParameters></data></segment></body></omm>
<omm id="CCSDS_OMM_VERS" version="2.0">
<header><CREATION_DATE/><ORIGINATOR/></header><body><segment><metadata><OBJECT_NAME>KUIPER-00078</OBJECT_NAME><OBJECT_ID>2025-151K</OBJECT_ID><CENTER_NAME>EARTH</CENTER_NAME><REF_FRAME>TEME</REF_FRAME><TIME_SYSTEM>UTC</TIME_SYSTEM><MEAN_ELEMENT_THEORY>SGP4</MEAN_ELEMENT_THEORY></metadata><data><meanElements><EPOCH>2025-08-01T20:48:24.111936</EPOCH><MEAN_MOTION>15.35281468</MEAN_MOTION><ECCENTRICITY>.0005678</ECCENTRICITY><INCLINATION>51.8774</INCLINATION><RA_OF_ASC_NODE>207.6192</RA_OF_ASC_NODE><ARG_OF_PERICENTER>215.3250</ARG_OF_PERICENTER><MEAN_ANOMALY>144.7360</MEAN_ANOMALY></meanElements><tleParameters><EPHEMERIS_TYPE>0</EPHEMERIS_TYPE><CLASSIFICATION_TYPE>U</CLASSIFICATION_TYPE><NORAD_CAT_ID>64825</NORAD_CAT_ID><ELEMENT_SET_NO>999</ELEMENT_SET_NO><REV_AT_EPOCH>254</REV_AT_EPOCH><BSTAR>.42521E-3</BSTAR><MEAN_MOTION_DOT>.14441E-3</MEAN_MOTION_DOT><MEAN_MOTION_DDOT>0</MEAN_MOTION_DDOT></tleParameters></data></segment></body></omm>

</ndm>
