KUIPER-00071            
1 64818U 25151C   25213.92757246  .00022391  00000+0  64335-3 0  9996
2 64818  51.8778 207.2788 0005396 196.4159 163.6653 15.35728487  2559
KUIPER-00072            
1 64819U 25151D   25214.19160286  .00024240  00000+0  70390-3 0  9992
2 64819  51.8769 206.0415 0004991 208.9690 151.1019 15.35348786  2595
KUIPER-00073            
1 64820U 25151E   25213.79992260  .00024921  00000+0  72077-3 0  9994
2 64820  51.8784 207.9243 0005088 203.2411 156.8345 15.35458284  3714
KUIPER-00074            
1 64821U 25151F   25213.79928030  .00026083  00000+0  75153-3 0  9998
2 64821  51.8769 207.9123 0005120 205.8609 154.2122 15.35551387  2531
KUIPER-00075            
1 64822U 25151G   25214.18893644  .00022807  00000+0  65785-3 0  9995
2 64822  51.8784 206.0321 0005015 197.8696 162.2114 15.35596384  2590
KUIPER-00076            
1 64823U 25151H   25213.80029923  .00027350  00000+0  79076-3 0  9991
2 64823  51.8770 207.9195 0005114 205.1112 154.9626 15.35416411  2533
KUIPER-00077            
1 64824U 25151J   25214.19277045  .00024431  00000+0  71114-3 0  9997
2 64824  51.8784 206.0560 0005716 212.2558 147.8079 15.35265452  2581
KUIPER-00078            
1 64825U 25151K   25213.86694574  .00014441  00000+0  42521-3 0  9991
2 64825  51.8774 207.6192 0005678 215.3250 144.7360 15.35281468  2549
